{"type": "FeatureCollection", "features": [ {"type": "Feature", "properties": {"norad_id": 66628, "name": "STARLINK-35862", "group": "last-30-days", "lat": -1.2292928203138698, "lon": 3.112591763837334, "alt_km": 420.121582789533, "timestamp": "2025-12-13T18:50:03.173389+00:00", "meta": {"OBJECT_NAME": "STARLINK-35862", "OBJECT_ID": "2025-271M", "EPOCH": "2025-12-13T06:00:02.000160", "MEAN_MOTION": 15.49396194, "ECCENTRICITY": 5.692e-05, "INCLINATION": 53.16, "RA_OF_ASC_NODE": 184.7483, "ARG_OF_PERICENTER": 85.5268, "MEAN_ANOMALY": 351.7179, "EPHEMERIS_TYPE": 0, "CLASSIFICATION_TYPE": "U", "NORAD_CAT_ID": 66628, "ELEMENT_SET_NO": 999, "REV_AT_EPOCH": 432, "BSTAR": -0.0030679849, "MEAN_MOTION_DOT": -0.00167969, "MEAN_MOTION_DDOT": 0}, "tle": {"line1": "1 66628U 25271M   25347.25002315 -.00167969  00000+0 -30680-2 0  9992", "line2": "2 66628  53.1600 184.7483 0000569  85.5268 351.7179 15.49396194  4327"}}, "geometry": {"type": "Point", "coordinates": [3.112591763837334, -1.2292928203138698]}}, {"type": "Feature", "properties": {"norad_id": 66629, "name": "STARLINK-35956", "group": "last-30-days", "lat": -2.7589213746741508, "lon": 4.257542480912138, "alt_km": 420.24185793224024, "timestamp": "2025-12-13T18:50:03.173401+00:00", "meta": {"OBJECT_NAME": "STARLINK-35956", "OBJECT_ID": "2025-271N", "EPOCH": "2025-12-13T06:00:02.000160", "MEAN_MOTION": 15.49372956, "ECCENTRICITY": 6.193e-05, "INCLINATION": 53.1599, "RA_OF_ASC_NODE": 184.7446, "ARG_OF_PERICENTER": 85.5531, "MEAN_ANOMALY": 353.5963, "EPHEMERIS_TYPE": 0, "CLASSIFICATION_TYPE": "U", "NORAD_CAT_ID": 66629, "ELEMENT_SET_NO": 999, "REV_AT_EPOCH": 432, "BSTAR": -0.0021640398, "MEAN_MOTION_DOT": -0.00119248, "MEAN_MOTION_DDOT": 0}, "tle": {"line1": "1 66629U 25271N   25347.25002315 -.00119248  00000+0 -21640-2 0  9996", "line2": "2 66629  53.1599 184.7446 0000619  85.5531 353.5963 15.49372956  4324"}}, "geometry": {"type": "Point", "coordinates": [4.257542480912138, -2.7589213746741508]}}, {"type": "Feature", "properties": {"norad_id": 66630, "name": "STARLINK-35949", "group": "last-30-days", "lat": -4.300488102560656, "lon": 5.414087497891911, "alt_km": 420.4346437821505, "timestamp": "2025-12-13T18:50:03.173414+00:00", "meta": {"OBJECT_NAME": "STARLINK-35949", "OBJECT_ID": "2025-271P", "EPOCH": "2025-12-13T06:00:02.000160", "MEAN_MOTION": 15.49378624, "ECCENTRICITY": 0.00010549, "INCLINATION": 53.1599, "RA_OF_ASC_NODE": 184.7396, "ARG_OF_PERICENTER": 98.3003, "MEAN_ANOMALY": 342.8051, "EPHEMERIS_TYPE": 0, "CLASSIFICATION_TYPE": "U", "NORAD_CAT_ID": 66630, "ELEMENT_SET_NO": 999, "REV_AT_EPOCH": 432, "BSTAR": -0.0029181846, "MEAN_MOTION_DOT": -0.00159862, "MEAN_MOTION_DDOT": 0}, "tle": {"line1": "1 66630U 25271P   25347.25002315 -.00159862  00000+0 -29182-2 0  9993", "line2": "2 66630  53.1599 184.7396 0001054  98.3003 342.8051 15.49378624  4327"}}, "geometry": {"type": "Point", "coordinates": [5.414087497891911, -4.300488102560656]}}, {"type": "Feature", "properties": {"norad_id": 66631, "name": "STARLINK-35965", "group": "last-30-days", "lat": -5.811457500552707, "lon": 6.5552055349488025, "alt_km": 420.3553254553208, "timestamp": "2025-12-13T18:50:03.173434+00:00", "meta": {"OBJECT_NAME": "STARLINK-35965", "OBJECT_ID": "2025-271Q", "EPOCH": "2025-12-13T06:00:02.000160", "MEAN_MOTION": 15.49248069, "ECCENTRICITY": 4.174e-05, "INCLINATION": 53.1601, "RA_OF_ASC_NODE": 184.7365, "ARG_OF_PERICENTER": 68.6488, "MEAN_ANOMALY": 14.3346, "EPHEMERIS_TYPE": 0, "CLASSIFICATION_TYPE": "U", "NORAD_CAT_ID": 66631, "ELEMENT_SET_NO": 999, "REV_AT_EPOCH": 432, "BSTAR": 0.0018685867, "MEAN_MOTION_DOT": 0.00104653, "MEAN_MOTION_DDOT": 0}, "tle": {"line1": "1 66631U 25271Q   25347.25002315  .00104653  00000+0  18686-2 0  9997", "line2": "2 66631  53.1601 184.7365 0000417  68.6488  14.3346 15.49248069  4324"}}, "geometry": {"type": "Point", "coordinates": [6.5552055349488025, -5.811457500552707]}}, {"type": "Feature", "properties": {"norad_id": 66632, "name": "STARLINK-35973", "group": "last-30-days", "lat": -7.333940134200874, "lon": 7.712002268829775, "alt_km": 420.5959974374364, "timestamp": "2025-12-13T18:50:03.173449+00:00", "meta": {"OBJECT_NAME": "STARLINK-35973", "OBJECT_ID": "2025-271R", "EPOCH": "2025-12-13T06:00:02.000160", "MEAN_MOTION": 15.49280995, "ECCENTRICITY": 5.059e-05, "INCLINATION": 53.16, "RA_OF_ASC_NODE": 184.7323, "ARG_OF_PERICENTER": 71.8573, "MEAN_ANOMALY": 13.0172, "EPHEMERIS_TYPE": 0, "CLASSIFICATION_TYPE": "U", "NORAD_CAT_ID": 66632, "ELEMENT_SET_NO": 999, "REV_AT_EPOCH": 426, "BSTAR": 0.0010767428, "MEAN_MOTION_DOT": 0.00059836, "MEAN_MOTION_DDOT": 0}, "tle": {"line1": "1 66632U 25271R   25347.25002315  .00059836  00000+0  10767-2 0  9992", "line2": "2 66632  53.1600 184.7323 0000505  71.8573  13.0172 15.49280995  4267"}}, "geometry": {"type": "Point", "coordinates": [7.712002268829775, -7.333940134200874]}}, {"type": "Feature", "properties": {"norad_id": 66633, "name": "STARLINK-35948", "group": "last-30-days", "lat": -8.929999809822547, "lon": 8.934918879952344, "alt_km": 420.6089004760679, "timestamp": "2025-12-13T18:50:03.173459+00:00", "meta": {"OBJECT_NAME": "STARLINK-35948", "OBJECT_ID": "2025-271S", "EPOCH": "2025-12-13T06:00:02.000160", "MEAN_MOTION": 15.49315427, "ECCENTRICITY": 9.198e-05, "INCLINATION": 53.1593, "RA_OF_ASC_NODE": 184.7269, "ARG_OF_PERICENTER": 107.2932, "MEAN_ANOMALY": 339.5706, "EPHEMERIS_TYPE": 0, "CLASSIFICATION_TYPE": "U", "NORAD_CAT_ID": 66633, "ELEMENT_SET_NO": 999, "REV_AT_EPOCH": 432, "BSTAR": 0.00013125899, "MEAN_MOTION_DOT": 6.86e-05, "MEAN_MOTION_DDOT": 0}, "tle": {"line1": "1 66633U 25271S   25347.25002315  .00006860  00000+0  13126-3 0  9995", "line2": "2 66633  53.1593 184.7269 0000919 107.2932 339.5706 15.49315427  4325"}}, "geometry": {"type": "Point", "coordinates": [8.934918879952344, -8.929999809822547]}}, {"type": "Feature", "properties": {"norad_id": 66634, "name": "STARLINK-35967", "group": "last-30-days", "lat": -10.40383631496258, "lon": 10.077320764452399, "alt_km": 421.32091999252225, "timestamp": "2025-12-13T18:50:03.173470+00:00", "meta": {"OBJECT_NAME": "STARLINK-35967", "OBJECT_ID": "2025-271T", "EPOCH": "2025-12-13T06:00:02.000160", "MEAN_MOTION": 15.49385712, "ECCENTRICITY": 9.638e-05, "INCLINATION": 53.1599, "RA_OF_ASC_NODE": 184.7228, "ARG_OF_PERICENTER": 92.6002, "MEAN_ANOMALY": 356.1725, "EPHEMERIS_TYPE": 0, "CLASSIFICATION_TYPE": "U", "NORAD_CAT_ID": 66634, "ELEMENT_SET_NO": 999, "REV_AT_EPOCH": 425, "BSTAR": -0.0031340017, "MEAN_MOTION_DOT": -0.00171441, "MEAN_MOTION_DDOT": 0}, "tle": {"line1": "1 66634U 25271T   25347.25002315 -.00171441  00000+0 -31340-2 0  9993", "line2": "2 66634  53.1599 184.7228 0000963  92.6002 356.1725 15.49385712  4253"}}, "geometry": {"type": "Point", "coordinates": [10.077320764452399, -10.40383631496258]}}, {"type": "Feature", "properties": {"norad_id": 66635, "name": "STARLINK-35955", "group": "last-30-days", "lat": -11.936642006323735, "lon": 11.281315615368207, "alt_km": 421.30189306925513, "timestamp": "2025-12-13T18:50:03.173480+00:00", "meta": {"OBJECT_NAME": "STARLINK-35955", "OBJECT_ID": "2025-271U", "EPOCH": "2025-12-13T06:00:02.000160", "MEAN_MOTION": 15.49341647, "ECCENTRICITY": 1.288e-05, "INCLINATION": 53.1599, "RA_OF_ASC_NODE": 184.7193, "ARG_OF_PERICENTER": 204.5934, "MEAN_ANOMALY": 246.1747, "EPHEMERIS_TYPE": 0, "CLASSIFICATION_TYPE": "U", "NORAD_CAT_ID": 66635, "ELEMENT_SET_NO": 999, "REV_AT_EPOCH": 432, "BSTAR": -0.0024619243, "MEAN_MOTION_DOT": -0.00135175, "MEAN_MOTION_DDOT": 0}, "tle": {"line1": "1 66635U 25271U   25347.25002315 -.00135175  00000+0 -24619-2 0  9999", "line2": "2 66635  53.1599 184.7193 0000128 204.5934 246.1747 15.49341647  4325"}}, "geometry": {"type": "Point", "coordinates": [11.281315615368207, -11.936642006323735]}}, {"type": "Feature", "properties": {"norad_id": 66636, "name": "STARLINK-35968", "group": "last-30-days", "lat": -13.406763962987846, "lon": 12.451870182259217, "alt_km": 421.60150037008134, "timestamp": "2025-12-13T18:50:03.173490+00:00", "meta": {"OBJECT_NAME": "STARLINK-35968", "OBJECT_ID": "2025-271V", "EPOCH": "2025-12-13T06:00:02.000160", "MEAN_MOTION": 15.49365553, "ECCENTRICITY": 5.748e-05, "INCLINATION": 53.1598, "RA_OF_ASC_NODE": 184.7152, "ARG_OF_PERICENTER": 59.6246, "MEAN_ANOMALY": 32.9061, "EPHEMERIS_TYPE": 0, "CLASSIFICATION_TYPE": "U", "NORAD_CAT_ID": 66636, "ELEMENT_SET_NO": 999, "REV_AT_EPOCH": 432, "BSTAR": -0.0015675753, "MEAN_MOTION_DOT": -0.00086837, "MEAN_MOTION_DDOT": 0}, "tle": {"line1": "1 66636U 25271V   25347.25002315 -.00086837  00000+0 -15676-2 0  9993", "line2": "2 66636  53.1598 184.7152 0000574  59.6246  32.9061 15.49365553  4322"}}, "geometry": {"type": "Point", "coordinates": [12.451870182259217, -13.406763962987846]}}, {"type": "Feature", "properties": {"norad_id": 66637, "name": "STARLINK-35953", "group": "last-30-days", "lat": -14.879786551110158, "lon": 13.64402317025402, "alt_km": 421.51040293201913, "timestamp": "2025-12-13T18:50:03.173500+00:00", "meta": {"OBJECT_NAME": "STARLINK-35953", "OBJECT_ID": "2025-271W", "EPOCH": "2025-12-13T06:00:02.000160", "MEAN_MOTION": 15.49253052, "ECCENTRICITY": 4.524e-05, "INCLINATION": 53.1598, "RA_OF_ASC_NODE": 184.7111, "ARG_OF_PERICENTER": 67.8143, "MEAN_ANOMALY": 26.6517, "EPHEMERIS_TYPE": 0, "CLASSIFICATION_TYPE": "U", "NORAD_CAT_ID": 66637, "ELEMENT_SET_NO": 999, "REV_AT_EPOCH": 432, "BSTAR": 0.001183933, "MEAN_MOTION_DOT": 0.00065824, "MEAN_MOTION_DDOT": 0}, "tle": {"line1": "1 66637U 25271W   25347.25002315  .00065824  00000+0  11839-2 0  9992", "line2": "2 66637  53.1598 184.7111 0000452  67.8143  26.6517 15.49253052  4326"}}, "geometry": {"type": "Point", "coordinates": [13.64402317025402, -14.879786551110158]}}]}